{
  "type": "FeatureCollection",
  "features": [
    {
      "type": "Feature",
      "properties": {
        "norad_id": 33886,
        "name": "IRIDIUM 33 DEB",
        "group": "iridium-33-debris",
        "lat": -66.05114936412848,
        "lon": -105.21411040877476,
        "alt_km": 770.1681499306342,
        "timestamp": "2025-12-14T05:42:18.846654+00:00",
        "meta_object_name": "IRIDIUM 33 DEB",
        "meta_object_id": "1997-051BF",
        "meta_epoch": "2025-12-13T15:43:50.042784",
        "meta_mean_motion": 14.36053343,
        "meta_eccentricity": 0.00123677,
        "meta_inclination": 86.383,
        "meta_ra_of_asc_node": 66.8435,
        "meta_arg_of_pericenter": 238.6343,
        "meta_mean_anomaly": 239.2491,
        "meta_ephemeris_type": 0,
        "meta_classification_type": "U",
        "meta_norad_cat_id": 33886,
        "meta_element_set_no": 999,
        "meta_rev_at_epoch": 88065,
        "meta_bstar": 0.00027622734,
        "meta_mean_motion_dot": 8.23e-06,
        "meta_mean_motion_ddot": 0,
        "tle_line1": "1 33886U 97051BF  25347.65544031  .00000823  00000+0  27623-3 0  9994",
        "tle_line2": "2 33886  86.3830  66.8435 0012367 238.6343 239.2491 14.36053343880657"
      },
      "geometry": {
        "type": "Point",
        "coordinates": [
          -105.21411040877476,
          -66.05114936412848
        ]
      }
    },
    {
      "type": "Feature",
      "properties": {
        "norad_id": 33887,
        "name": "IRIDIUM 33 DEB",
        "group": "iridium-33-debris",
        "lat": -8.862533321107557,
        "lon": -176.67564556693196,
        "alt_km": 769.1090153964979,
        "timestamp": "2025-12-14T05:42:18.846665+00:00",
        "meta_object_name": "IRIDIUM 33 DEB",
        "meta_object_id": "1997-051BG",
        "meta_epoch": "2025-12-13T09:05:12.158016",
        "meta_mean_motion": 14.37221952,
        "meta_eccentricity": 0.00044911,
        "meta_inclination": 86.3045,
        "meta_ra_of_asc_node": 3.117,
        "meta_arg_of_pericenter": 223.9007,
        "meta_mean_anomaly": 202.6908,
        "meta_ephemeris_type": 0,
        "meta_classification_type": "U",
        "meta_norad_cat_id": 33887,
        "meta_element_set_no": 999,
        "meta_rev_at_epoch": 88174,
        "meta_bstar": 0.00022215424,
        "meta_mean_motion_dot": 6.81e-06,
        "meta_mean_motion_ddot": 0,
        "tle_line1": "1 33887U 97051BG  25347.37861294  .00000681  00000+0  22215-3 0  9991",
        "tle_line2": "2 33887  86.3045   3.1170 0004491 223.9007 202.6908 14.37221952881741"
      },
      "geometry": {
        "type": "Point",
        "coordinates": [
          -176.67564556693196,
          -8.862533321107557
        ]
      }
    },
    {
      "type": "Feature",
      "properties": {
        "norad_id": 33953,
        "name": "IRIDIUM 33 DEB",
        "group": "iridium-33-debris",
        "lat": 37.817705387061295,
        "lon": -129.6837907843791,
        "alt_km": 696.1713537196974,
        "timestamp": "2025-12-14T05:42:18.846676+00:00",
        "meta_object_name": "IRIDIUM 33 DEB",
        "meta_object_id": "1997-051BN",
        "meta_epoch": "2025-12-13T10:57:18.016992",
        "meta_mean_motion": 14.55340408,
        "meta_eccentricity": 0.00183507,
        "meta_inclination": 86.3846,
        "meta_ra_of_asc_node": 53.4681,
        "meta_arg_of_pericenter": 100.6821,
        "meta_mean_anomaly": 270.6003,
        "meta_ephemeris_type": 0,
        "meta_classification_type": "U",
        "meta_norad_cat_id": 33953,
        "meta_element_set_no": 999,
        "meta_rev_at_epoch": 88314,
        "meta_bstar": 0.0019195798,
        "meta_mean_motion_dot": 8.367e-05,
        "meta_mean_motion_ddot": 0,
        "tle_line1": "1 33953U 97051BN  25347.45645853  .00008367  00000+0  19196-2 0  9997",
        "tle_line2": "2 33953  86.3846  53.4681 0018350 100.6821 270.6003 14.55340408883148"
      },
      "geometry": {
        "type": "Point",
        "coordinates": [
          -129.6837907843791,
          37.817705387061295
        ]
      }
    },
    {
      "type": "Feature",
      "properties": {
        "norad_id": 33960,
        "name": "IRIDIUM 33 DEB",
        "group": "iridium-33-debris",
        "lat": 72.28885807836663,
        "lon": 96.96571474010088,
        "alt_km": 602.2273585347139,
        "timestamp": "2025-12-14T05:42:18.846688+00:00",
        "meta_object_name": "IRIDIUM 33 DEB",
        "meta_object_id": "1997-051BV",
        "meta_epoch": "2025-12-13T08:46:06.481920",
        "meta_mean_motion": 14.85254819,
        "meta_eccentricity": 0.00074666,
        "meta_inclination": 86.2528,
        "meta_ra_of_asc_node": 289.2196,
        "meta_arg_of_pericenter": 61.7284,
        "meta_mean_anomaly": 63.9916,
        "meta_ephemeris_type": 0,
        "meta_classification_type": "U",
        "meta_norad_cat_id": 33960,
        "meta_element_set_no": 999,
        "meta_rev_at_epoch": 88876,
        "meta_bstar": 0.0052453084,
        "meta_mean_motion_dot": 0.00045289,
        "meta_mean_motion_ddot": 0,
        "tle_line1": "1 33960U 97051BV  25347.36535280  .00045289  00000+0  52453-2 0  9994",
        "tle_line2": "2 33960  86.2528 289.2196 0007466  61.7284  63.9916 14.85254819888760"
      },
      "geometry": {
        "type": "Point",
        "coordinates": [
          96.96571474010088,
          72.28885807836663
        ]
      }
    },
    {
      "type": "Feature",
      "properties": {
        "norad_id": 33966,
        "name": "IRIDIUM 33 DEB",
        "group": "iridium-33-debris",
        "lat": -56.93898137461727,
        "lon": -129.05397599362118,
        "alt_km": 730.9620259897174,
        "timestamp": "2025-12-14T05:42:18.846698+00:00",
        "meta_object_name": "IRIDIUM 33 DEB",
        "meta_object_id": "1997-051CB",
        "meta_epoch": "2025-12-13T15:55:10.824672",
        "meta_mean_motion": 14.49599839,
        "meta_eccentricity": 0.00075315,
        "meta_inclination": 86.3927,
        "meta_ra_of_asc_node": 45.6309,
        "meta_arg_of_pericenter": 185.0605,
        "meta_mean_anomaly": 296.2992,
        "meta_ephemeris_type": 0,
        "meta_classification_type": "U",
        "meta_norad_cat_id": 33966,
        "meta_element_set_no": 999,
        "meta_rev_at_epoch": 88455,
        "meta_bstar": 0.00068967677,
        "meta_mean_motion_dot": 2.668e-05,
        "meta_mean_motion_ddot": 0,
        "tle_line1": "1 33966U 97051CB  25347.66331973  .00002668  00000+0  68968-3 0  9999",
        "tle_line2": "2 33966  86.3927  45.6309 0007531 185.0605 296.2992 14.49599839884552"
      },
      "geometry": {
        "type": "Point",
        "coordinates": [
          -129.05397599362118,
          -56.93898137461727
        ]
      }
    },
    {
      "type": "Feature",
      "properties": {
        "norad_id": 34071,
        "name": "IRIDIUM 33 DEB",
        "group": "iridium-33-debris",
        "lat": -57.263982325726204,
        "lon": 11.472954267541356,
        "alt_km": 741.2049263770605,
        "timestamp": "2025-12-14T05:42:18.846725+00:00",
        "meta_object_name": "IRIDIUM 33 DEB",
        "meta_object_id": "1997-051CE",
        "meta_epoch": "2025-12-13T15:03:31.156416",
        "meta_mean_motion": 14.4947049,
        "meta_eccentricity": 0.00099405,
        "meta_inclination": 86.3461,
        "meta_ra_of_asc_node": 17.4426,
        "meta_arg_of_pericenter": 105.1963,
        "meta_mean_anomaly": 255.0341,
        "meta_ephemeris_type": 0,
        "meta_classification_type": "U",
        "meta_norad_cat_id": 34071,
        "meta_element_set_no": 999,
        "meta_rev_at_epoch": 88347,
        "meta_bstar": 0.00076335919,
        "meta_mean_motion_dot": 2.943e-05,
        "meta_mean_motion_ddot": 0,
        "tle_line1": "1 34071U 97051CE  25347.62744394  .00002943  00000+0  76336-3 0  9992",
        "tle_line2": "2 34071  86.3461  17.4426 0009940 105.1963 255.0341 14.49470490883478"
      },
      "geometry": {
        "type": "Point",
        "coordinates": [
          11.472954267541356,
          -57.263982325726204
        ]
      }
    },
    {
      "type": "Feature",
      "properties": {
        "norad_id": 34077,
        "name": "IRIDIUM 33 DEB",
        "group": "iridium-33-debris",
        "lat": -47.83149006890205,
        "lon": -125.15132212055731,
        "alt_km": 691.4007630072774,
        "timestamp": "2025-12-14T05:42:18.846738+00:00",
        "meta_object_name": "IRIDIUM 33 DEB",
        "meta_object_id": "1997-051CL",
        "meta_epoch": "2025-12-13T10:41:04.689024",
        "meta_mean_motion": 14.64855811,
        "meta_eccentricity": 0.0010173,
        "meta_inclination": 86.3861,
        "meta_ra_of_asc_node": 51.1965,
        "meta_arg_of_pericenter": 37.4256,
        "meta_mean_anomaly": 333.7971,
        "meta_ephemeris_type": 0,
        "meta_classification_type": "U",
        "meta_norad_cat_id": 34077,
        "meta_element_set_no": 999,
        "meta_rev_at_epoch": 88343,
        "meta_bstar": 0.0021086262,
        "meta_mean_motion_dot": 0.00011297,
        "meta_mean_motion_ddot": 0,
        "tle_line1": "1 34077U 97051CL  25347.44519316  .00011297  00000+0  21086-2 0  9995",
        "tle_line2": "2 34077  86.3861  51.1965 0010173  37.4256 333.7971 14.64855811883433"
      },
      "geometry": {
        "type": "Point",
        "coordinates": [
          -125.15132212055731,
          -47.83149006890205
        ]
      }
    }
  ]
}